[{"OBJECT_NAME":"STARLINK-30256","OBJECT_ID":"2023-115B","EPOCH":"2026-03-09T04:55:32.299680","MEAN_MOTION":15.26726159,"ECCENTRICITY":0.00017429,"INCLINATION":43.0014,"RA_OF_ASC_NODE":4.6316,"ARG_OF_PERICENTER":264.2228,"MEAN_ANOMALY":95.8424,"EPHEMERIS_TYPE":0,"CLASSIFICATION_TYPE":"U","NORAD_CAT_ID":57522,"ELEMENT_SET_NO":999,"REV_AT_EPOCH":14227,"BSTAR":-0.00019068612,"MEAN_MOTION_DOT":-5.369e-5,"MEAN_MOTION_DDOT":0},{"OBJECT_NAME":"FLOCK 4G-27","OBJECT_ID":"2025-009AJ","EPOCH":"2026-03-09T18:05:51.175392","MEAN_MOTION":15.27199247,"ECCENTRICITY":7.564e-5,"INCLINATION":97.3976,"RA_OF_ASC_NODE":150.8631,"ARG_OF_PERICENTER":322.4974,"MEAN_ANOMALY":37.6212,"EPHEMERIS_TYPE":0,"CLASSIFICATION_TYPE":"U","NORAD_CAT_ID":62641,"ELEMENT_SET_NO":999,"REV_AT_EPOCH":6371,"BSTAR":0.00047455305,"MEAN_MOTION_DOT":0.00012587,"MEAN_MOTION_DDOT":0}]
